STARLINK-31162          
1 58791U 24012E   26177.59586216 -.00000909  00000+0 -23513-4 0  9991
2 58791  43.0035 270.0555 0001202 280.3215  79.7501 15.27569442137899
STARLINK-31184          
1 58793U 24012G   26177.65610470 -.00000484  00000+0 -80875-5 0  9993
2 58793  43.0011 269.6395 0001080 278.2996  81.7733 15.27571019137902
STARLINK-31192          
1 58794U 24012H   26177.63311883 -.00001392  00000+0 -41078-4 0  9998
2 58794  43.0029 270.3176 0000989 262.8527  97.2212 15.27571720137895
STARLINK-31161          
1 58795U 24012J   26177.52790490 -.00002317  00000+0 -74717-4 0  9996
2 58795  43.0002 270.3965 0001132 263.6453  96.4270 15.27574873137887
STARLINK-31195          
1 58796U 24012K   26177.64083525 -.00001277  00000+0 -36901-4 0  9991
2 58796  43.0025 270.3796 0000831 261.7121  98.3637 15.27566225137892
STARLINK-31193          
1 58797U 24012L   26177.60228784 -.00002453  00000+0 -79644-4 0  9994
2 58797  43.0013 270.0924 0001229 273.2794  86.7917 15.27575392137893
STARLINK-31168          
1 58798U 24012M   26177.60613517 -.00001462  00000+0 -43615-4 0  9995
2 58798  42.9993 270.1155 0001304 277.6051  82.4653 15.27567921137893
STARLINK-31191          
1 58800U 24012P   26177.58686525 -.00001283  00000+0 -37127-4 0  9997
2 58800  43.0039 269.9760 0001323 275.6879  84.3822 15.27568141137899
STARLINK-31170          
1 58801U 24012Q   26177.93948505 -.00000112  00000+0  54608-5 0  9999
2 58801  42.9998 268.3165 0001371 271.5500  88.5195 15.27578899137949
STARLINK-31141          
1 58803U 24012S   26177.94976910 -.00000054  00000+0  75487-5 0  9996
2 58803  42.9989 268.3946 0001526 277.2846  82.7832 15.27574874137949
STARLINK-31188          
1 58804U 24012T   26177.94334706 -.00001156  00000+0 -32514-4 0  9996
2 58804  42.9997 268.3474 0001112 273.4007  86.6717 15.27573431137946
STARLINK-31138          
1 58806U 24012V   26177.94591578 -.00001999  00000+0 -63178-4 0  9995
2 58806  43.0013 268.3619 0001049 277.9561  82.1171 15.27570145137947
STARLINK-31163          
1 58807U 24012W   26177.57915019 -.00001301  00000+0 -37782-4 0  9994
2 58807  43.0033 269.9118 0001329 264.8609  95.2091 15.27568789137891
STARLINK-31174          
1 58808U 24012X   26177.57788229 -.00002842  00000+0 -93847-4 0  9991
2 58808  43.0046 269.9016 0001152 292.7343  67.3387 15.27556612137892
STARLINK-31169          
1 58809U 24012Y   26177.94206089 -.00000816  00000+0 -20148-4 0  9995
2 58809  42.9993 268.3357 0001108 274.8254  85.2471 15.27573522137944
NANOFF A                
1 58810U 23185T   26177.98210464  .00003323  00000+0  19527-3 0  9995
2 58810  97.5266 245.2909 0008426 274.4372  85.5896 15.12355521134525
SORAYA                  
1 58817U 24015A   26177.95918983  .00000077  00000+0  55149-4 0  9997
2 58817  64.5159  52.4918 0008947 262.7867  97.2201 14.42717428128187
2024-016A               
1 58820U 24016A   26177.97434001  .00034222  00000+0  49972-3 0  9993
2 58820  97.4486 273.6872 0005279  24.8799 335.2709 15.55573324135592
2024-016B               
1 58821U 24016B   26177.96983530  .00149779  00000+0  95771-3 0  9991
2 58821  97.4461 275.6622 0001773 298.1855  61.9231 15.75896091135713
2024-016C               
1 58822U 24016C   26177.96907587  .00009190  00000+0  36644-3 0  9996
2 58822  97.4373 258.5009 0011032 156.8901 203.2835 15.25364015134627
2024-016D               
1 58823U 24016D   26177.97331823  .00040816  00000+0  64940-3 0  9992
2 58823  97.4326 268.3057 0005635  45.8735 314.2981 15.53171836135299
STARLINK-31233          
1 58826U 24017A   26177.93953619  .00001008  00000+0  46141-4 0  9999
2 58826  53.1608  56.8157 0001216  96.9067 263.2072 15.30198984136902
STARLINK-31271          
1 58827U 24017B   26177.96593302  .00029781  00000+0  10144-2 0  9992
2 58827  53.1572  56.9781 0000975  88.0586 272.0526 15.30172824136789
STARLINK-31222          
1 58828U 24017C   26177.91317677 -.00002090  00000+0 -58515-4 0  9999
2 58828  53.1606  56.6461 0001421  93.3313 266.7850 15.30175757136782
STARLINK-31258          
1 58829U 24017D   26177.94587792  .00001035  00000+0  47066-4 0  9995
2 58829  53.1611  56.8484 0001232  93.3412 266.7730 15.30188999136785
STARLINK-31253          
1 58830U 24017E   26177.93545907 -.00001396  00000+0 -33240-4 0  9999
2 58830  53.1608  56.0761 0001186 101.1212 258.9923 15.31689172136795
STARLINK-31232          
1 58831U 24017F   26177.92612644 -.00001965  00000+0 -51608-4 0  9992
2 58831  53.1598  56.0180 0001438  98.1840 261.9325 15.31684075136798
STARLINK-31263          
1 58832U 24017G   26177.87226167 -.00002184  00000+0 -53565-4 0  9996
2 58832  53.1603  45.7401 0001333 118.5291 241.5846 15.34382014137040
STARLINK-31171          
1 58834U 24017J   26177.90630679 -.00002113  00000+0 -59267-4 0  9996
2 58834  53.1600  33.4625 0001325  88.2612 271.8541 15.30182126137105
STARLINK-31246          
1 58835U 24017K   26177.93638563 -.00000305  00000+0  18332-5 0  9999
2 58835  53.1606  56.7883 0001368  96.2643 263.8514 15.30184050136788
