OBJECT_NAME,OBJECT_ID,EPOCH,MEAN_MOTION,ECCENTRICITY,INCLINATION,RA_OF_ASC_NODE,ARG_OF_PERICENTER,MEAN_ANOMALY,EPHEMERIS_TYPE,CLASSIFICATION_TYPE,NORAD_CAT_ID,ELEMENT_SET_NO,REV_AT_EPOCH,BSTAR,MEAN_MOTION_DOT,MEAN_MOTION_DDOT
STARLINK-31162,2024-012E,2026-06-26T14:18:02.490624,15.27569442,.0001202,43.0035,270.0555,280.3215,79.7501,0,U,58791,999,13789,-.23513E-4,-.909E-5,0
STARLINK-31184,2024-012G,2026-06-26T15:44:47.446080,15.27571019,.00010807,43.0011,269.6395,278.2996,81.7733,0,U,58793,999,13790,-.8087494E-5,-.484E-5,0
STARLINK-31192,2024-012H,2026-06-26T15:11:41.466912,15.27571720,.00009897,43.0029,270.3176,262.8527,97.2212,0,U,58794,999,13789,-.41078425E-4,-.1392E-4,0
STARLINK-31161,2024-012J,2026-06-26T12:40:10.983360,15.27574873,.0001132,43.0002,270.3965,263.6453,96.4270,0,U,58795,999,13788,-.74717E-4,-.2317E-4,0
STARLINK-31195,2024-012K,2026-06-26T15:22:48.165600,15.27566225,.00008313,43.0025,270.3796,261.7121,98.3637,0,U,58796,999,13789,-.36901277E-4,-.1277E-4,0
STARLINK-31193,2024-012L,2026-06-26T14:27:17.669376,15.27575392,.0001229,43.0013,270.0924,273.2794,86.7917,0,U,58797,999,13789,-.79644E-4,-.2453E-4,0
STARLINK-31168,2024-012M,2026-06-26T14:32:50.078688,15.27567921,.0001304,42.9993,270.1155,277.6051,82.4653,0,U,58798,999,13789,-.43615E-4,-.1462E-4,0
STARLINK-31191,2024-012P,2026-06-26T14:05:05.157600,15.27568141,.0001323,43.0039,269.9760,275.6879,84.3822,0,U,58800,999,13789,-.37127E-4,-.1283E-4,0
STARLINK-31170,2024-012Q,2026-06-26T22:32:51.508320,15.27578899,.00013715,42.9998,268.3165,271.5500,88.5195,0,U,58801,999,13794,.546079E-5,-.112E-5,0
STARLINK-31141,2024-012S,2026-06-26T22:47:40.050240,15.27574874,.00015264,42.9989,268.3946,277.2846,82.7832,0,U,58803,999,13794,.7548679E-5,-.54E-6,0
STARLINK-31188,2024-012T,2026-06-26T22:38:25.185984,15.27573431,.00011128,42.9997,268.3474,273.4007,86.6717,0,U,58804,999,13794,-.32513817E-4,-.1156E-4,0
STARLINK-31138,2024-012V,2026-06-26T22:42:07.123392,15.27570145,.0001049,43.0013,268.3619,277.9561,82.1171,0,U,58806,999,13794,-.63177902E-4,-.1999E-4,0
STARLINK-31163,2024-012W,2026-06-26T13:53:58.576416,15.27568789,.0001329,43.0033,269.9118,264.8609,95.2091,0,U,58807,999,13789,-.37782E-4,-.1301E-4,0
STARLINK-31174,2024-012X,2026-06-26T13:52:09.029856,15.27556612,.0001152,43.0046,269.9016,292.7343,67.3387,0,U,58808,999,13789,-.93847E-4,-.2842E-4,0
STARLINK-31169,2024-012Y,2026-06-26T22:36:34.060896,15.27573522,.00011086,42.9993,268.3357,274.8254,85.2471,0,U,58809,999,13794,-.20147923E-4,-.816E-5,0
NANOFF A,2023-185T,2026-06-26T23:34:13.840896,15.12355521,.00084262,97.5266,245.2909,274.4372,85.5896,0,U,58810,999,13452,.19526521E-3,.3323E-4,0
SORAYA,2024-015A,2026-06-26T23:01:14.001312,14.42717428,.00089477,64.5159,52.4918,262.7867,97.2201,0,U,58817,999,12818,.55148956E-4,.77E-6,0
2024-016A,2024-016A,2026-06-26T23:23:02.976864,15.55573324,.00052794,97.4486,273.6872,24.8799,335.2709,0,U,58820,999,13559,.49972052E-3,.34222E-3,0
2024-016B,2024-016B,2026-06-26T23:16:33.769920,15.75896091,.00017736,97.4461,275.6622,298.1855,61.9231,0,U,58821,999,13571,.95771421E-3,.149779E-2,0
2024-016C,2024-016C,2026-06-26T23:15:28.155168,15.25364015,.00110327,97.4373,258.5009,156.8901,203.2835,0,U,58822,999,13462,.36644016E-3,.919E-4,0
2024-016D,2024-016D,2026-06-26T23:21:34.695072,15.53171836,.00056358,97.4326,268.3057,45.8735,314.2981,0,U,58823,999,13529,.64939574E-3,.40816E-3,0
STARLINK-31233,2024-017A,2026-06-26T22:32:55.926816,15.30198984,.00012161,53.1608,56.8157,96.9067,263.2072,0,U,58826,999,13690,.46140868E-4,.1008E-4,0
STARLINK-31271,2024-017B,2026-06-26T23:10:56.612928,15.30172824,.00009758,53.1572,56.9781,88.0586,272.0526,0,U,58827,999,13678,.10144295E-2,.29781E-3,0
STARLINK-31222,2024-017C,2026-06-26T21:54:58.472928,15.30175757,.00014215,53.1606,56.6461,93.3313,266.7850,0,U,58828,999,13678,-.58514543E-4,-.209E-4,0
STARLINK-31258,2024-017D,2026-06-26T22:42:03.852288,15.30188999,.00012325,53.1611,56.8484,93.3412,266.7730,0,U,58829,999,13678,.47065533E-4,.1035E-4,0
STARLINK-31253,2024-017E,2026-06-26T22:27:03.663648,15.31689172,.00011866,53.1608,56.0761,101.1212,258.9923,0,U,58830,999,13679,-.33239663E-4,-.1396E-4,0
STARLINK-31232,2024-017F,2026-06-26T22:13:37.324416,15.31684075,.00014382,53.1598,56.0180,98.1840,261.9325,0,U,58831,999,13679,-.51608218E-4,-.1965E-4,0
STARLINK-31263,2024-017G,2026-06-26T20:56:03.408288,15.34382014,.00013332,53.1603,45.7401,118.5291,241.5846,0,U,58832,999,13704,-.5356535E-4,-.2184E-4,0
STARLINK-31171,2024-017J,2026-06-26T21:45:04.906656,15.30182126,.00013254,53.1600,33.4625,88.2612,271.8541,0,U,58834,999,13710,-.59267444E-4,-.2113E-4,0
STARLINK-31246,2024-017K,2026-06-26T22:28:23.718432,15.30184050,.00013685,53.1606,56.7883,96.2643,263.8514,0,U,58835,999,13678,.1833224E-5,-.305E-5,0
